{
  "type": "FeatureCollection",
  "features": [
    {
      "type": "Feature",
      "properties": {
        "norad_id": 33805,
        "name": "COSMOS 2251 DEB",
        "group": "cosmos-2251-debris",
        "lat": -34.0508580432352,
        "lon": 116.66972058865315,
        "alt_km": 716.587008009591,
        "timestamp": "2025-12-26T07:29:18.847073+00:00",
        "meta_object_name": "COSMOS 2251 DEB",
        "meta_object_id": "1993-036AW",
        "meta_epoch": "2025-12-25T18:58:51.021984",
        "meta_mean_motion": 14.57884159,
        "meta_eccentricity": 0.00598903,
        "meta_inclination": 74.0313,
        "meta_ra_of_asc_node": 286.503,
        "meta_arg_of_pericenter": 111.6609,
        "meta_mean_anomaly": 249.0949,
        "meta_ephemeris_type": 0,
        "meta_classification_type": "U",
        "meta_norad_cat_id": 33805,
        "meta_element_set_no": 999,
        "meta_rev_at_epoch": 89417,
        "meta_bstar": 0.00025079963,
        "meta_mean_motion_dot": 1.148e-05,
        "meta_mean_motion_ddot": 0,
        "tle_line1": "1 33805U 93036AW  25359.79086831  .00001148  00000+0  25080-3 0  9997",
        "tle_line2": "2 33805  74.0313 286.5030 0059890 111.6609 249.0949 14.57884159894176"
      },
      "geometry": {
        "type": "Point",
        "coordinates": [
          116.66972058865315,
          -34.0508580432352
        ]
      }
    },
    {
      "type": "Feature",
      "properties": {
        "norad_id": 33811,
        "name": "COSMOS 2251 DEB",
        "group": "cosmos-2251-debris",
        "lat": -61.60786352193766,
        "lon": 126.9488550082186,
        "alt_km": 562.2789802259704,
        "timestamp": "2025-12-26T07:29:18.847084+00:00",
        "meta_object_name": "COSMOS 2251 DEB",
        "meta_object_id": "1993-036BC",
        "meta_epoch": "2025-12-25T21:06:40.199616",
        "meta_mean_motion": 15.05656727,
        "meta_eccentricity": 0.00309872,
        "meta_inclination": 73.8379,
        "meta_ra_of_asc_node": 275.3975,
        "meta_arg_of_pericenter": 353.7396,
        "meta_mean_anomaly": 70.1491,
        "meta_ephemeris_type": 0,
        "meta_classification_type": "U",
        "meta_norad_cat_id": 33811,
        "meta_element_set_no": 999,
        "meta_rev_at_epoch": 90216,
        "meta_bstar": 0.0011136153,
        "meta_mean_motion_dot": 0.00016254,
        "meta_mean_motion_ddot": 0,
        "tle_line1": "1 33811U 93036BC  25359.87963194  .00016254  00000+0  11136-2 0  9999",
        "tle_line2": "2 33811  73.8379 275.3975 0030987 353.7396  70.1491 15.05656727902160"
      },
      "geometry": {
        "type": "Point",
        "coordinates": [
          126.9488550082186,
          -61.60786352193766
        ]
      }
    },
    {
      "type": "Feature",
      "properties": {
        "norad_id": 33815,
        "name": "COSMOS 2251 DEB",
        "group": "cosmos-2251-debris",
        "lat": -59.17210695750529,
        "lon": 119.15738169225105,
        "alt_km": 504.3597558811043,
        "timestamp": "2025-12-26T07:29:18.847095+00:00",
        "meta_object_name": "COSMOS 2251 DEB",
        "meta_object_id": "1993-036BG",
        "meta_epoch": "2025-12-25T19:41:06.838656",
        "meta_mean_motion": 15.21778143,
        "meta_eccentricity": 0.00040974,
        "meta_inclination": 73.9516,
        "meta_ra_of_asc_node": 149.0355,
        "meta_arg_of_pericenter": 331.2535,
        "meta_mean_anomaly": 152.2053,
        "meta_ephemeris_type": 0,
        "meta_classification_type": "U",
        "meta_norad_cat_id": 33815,
        "meta_element_set_no": 999,
        "meta_rev_at_epoch": 88569,
        "meta_bstar": 0.007771607,
        "meta_mean_motion_dot": 0.00180807,
        "meta_mean_motion_ddot": 0,
        "tle_line1": "1 33815U 93036BG  25359.82021804  .00180807  00000+0  77716-2 0  9993",
        "tle_line2": "2 33815  73.9516 149.0355 0004097 331.2535 152.2053 15.21778143885695"
      },
      "geometry": {
        "type": "Point",
        "coordinates": [
          119.15738169225105,
          -59.17210695750529
        ]
      }
    },
    {
      "type": "Feature",
      "properties": {
        "norad_id": 33816,
        "name": "COSMOS 2251 DEB",
        "group": "cosmos-2251-debris",
        "lat": -70.98783250691692,
        "lon": -40.629690657508654,
        "alt_km": 1153.0894762019752,
        "timestamp": "2025-12-26T07:29:18.847105+00:00",
        "meta_object_name": "COSMOS 2251 DEB",
        "meta_object_id": "1993-036BH",
        "meta_epoch": "2025-12-25T14:36:56.196000",
        "meta_mean_motion": 13.81797239,
        "meta_eccentricity": 0.0264117,
        "meta_inclination": 73.8953,
        "meta_ra_of_asc_node": 83.5844,
        "meta_arg_of_pericenter": 93.9633,
        "meta_mean_anomaly": 269.1724,
        "meta_ephemeris_type": 0,
        "meta_classification_type": "U",
        "meta_norad_cat_id": 33816,
        "meta_element_set_no": 999,
        "meta_rev_at_epoch": 84851,
        "meta_bstar": 0.00036192,
        "meta_mean_motion_dot": 4.84e-06,
        "meta_mean_motion_ddot": 0,
        "tle_line1": "1 33816U 93036BH  25359.60898375  .00000484  00000+0  36192-3 0  9991",
        "tle_line2": "2 33816  73.8953  83.5844 0264117  93.9633 269.1724 13.81797239848511"
      },
      "geometry": {
        "type": "Point",
        "coordinates": [
          -40.629690657508654,
          -70.98783250691692
        ]
      }
    },
    {
      "type": "Feature",
      "properties": {
        "norad_id": 33818,
        "name": "COSMOS 2251 DEB",
        "group": "cosmos-2251-debris",
        "lat": -30.85516645198424,
        "lon": -32.01295634417108,
        "alt_km": 531.3635182126955,
        "timestamp": "2025-12-26T07:29:18.847115+00:00",
        "meta_object_name": "COSMOS 2251 DEB",
        "meta_object_id": "1993-036BK",
        "meta_epoch": "2025-12-25T19:57:28.798848",
        "meta_mean_motion": 15.1359448,
        "meta_eccentricity": 0.00239193,
        "meta_inclination": 74.08,
        "meta_ra_of_asc_node": 139.1628,
        "meta_arg_of_pericenter": 121.2453,
        "meta_mean_anomaly": 353.8108,
        "meta_ephemeris_type": 0,
        "meta_classification_type": "U",
        "meta_norad_cat_id": 33818,
        "meta_element_set_no": 999,
        "meta_rev_at_epoch": 90060,
        "meta_bstar": 0.0025293777,
        "meta_mean_motion_dot": 0.00045981,
        "meta_mean_motion_ddot": 0,
        "tle_line1": "1 33818U 93036BK  25359.83158332  .00045981  00000+0  25294-2 0  9991",
        "tle_line2": "2 33818  74.0800 139.1628 0023919 121.2453 353.8108 15.13594480900609"
      },
      "geometry": {
        "type": "Point",
        "coordinates": [
          -32.01295634417108,
          -30.85516645198424
        ]
      }
    },
    {
      "type": "Feature",
      "properties": {
        "norad_id": 33819,
        "name": "COSMOS 2251 DEB",
        "group": "cosmos-2251-debris",
        "lat": -8.458812826420221,
        "lon": -177.1217263527089,
        "alt_km": 747.2794583300893,
        "timestamp": "2025-12-26T07:29:18.847126+00:00",
        "meta_object_name": "COSMOS 2251 DEB",
        "meta_object_id": "1993-036BL",
        "meta_epoch": "2025-12-25T23:51:31.002912",
        "meta_mean_motion": 14.32263602,
        "meta_eccentricity": 0.00895647,
        "meta_inclination": 74.1772,
        "meta_ra_of_asc_node": 185.8703,
        "meta_arg_of_pericenter": 43.1942,
        "meta_mean_anomaly": 110.3702,
        "meta_ephemeris_type": 0,
        "meta_classification_type": "U",
        "meta_norad_cat_id": 33819,
        "meta_element_set_no": 999,
        "meta_rev_at_epoch": 87685,
        "meta_bstar": 0.00049369612,
        "meta_mean_motion_dot": 1.368e-05,
        "meta_mean_motion_ddot": 0,
        "tle_line1": "1 33819U 93036BL  25359.99410883  .00001368  00000+0  49370-3 0  9994",
        "tle_line2": "2 33819  74.1772 185.8703 0089564  43.1942 110.3702 14.32263602876858"
      },
      "geometry": {
        "type": "Point",
        "coordinates": [
          -177.1217263527089,
          -8.458812826420221
        ]
      }
    },
    {
      "type": "Feature",
      "properties": {
        "norad_id": 33821,
        "name": "COSMOS 2251 DEB",
        "group": "cosmos-2251-debris",
        "lat": -73.65667109234414,
        "lon": 36.55379891349509,
        "alt_km": 516.0983701240948,
        "timestamp": "2025-12-26T07:29:18.847136+00:00",
        "meta_object_name": "COSMOS 2251 DEB",
        "meta_object_id": "1993-036BN",
        "meta_epoch": "2025-12-25T17:42:39.732768",
        "meta_mean_motion": 15.26124153,
        "meta_eccentricity": 0.00492072,
        "meta_inclination": 74.0304,
        "meta_ra_of_asc_node": 115.3421,
        "meta_arg_of_pericenter": 144.3088,
        "meta_mean_anomaly": 216.142,
        "meta_ephemeris_type": 0,
        "meta_classification_type": "U",
        "meta_norad_cat_id": 33821,
        "meta_element_set_no": 999,
        "meta_rev_at_epoch": 75199,
        "meta_bstar": 0.0012899322,
        "meta_mean_motion_dot": 0.00034606,
        "meta_mean_motion_ddot": 0,
        "tle_line1": "1 33821U 93036BN  25359.73795987  .00034606  00000+0  12899-2 0  9996",
        "tle_line2": "2 33821  74.0304 115.3421 0049207 144.3088 216.1420 15.26124153751991"
      },
      "geometry": {
        "type": "Point",
        "coordinates": [
          36.55379891349509,
          -73.65667109234414
        ]
      }
    }
  ]
}